[{"OBJECT_NAME":"STARLINK-37298","OBJECT_ID":"2026-077J","EPOCH":"2026-04-27T15:03:24.610752","MEAN_MOTION":15.75223848,"ECCENTRICITY":0.0001281,"INCLINATION":97.2848,"RA_OF_ASC_NODE":348.9275,"ARG_OF_PERICENTER":69.0046,"MEAN_ANOMALY":291.1356,"EPHEMERIS_TYPE":0,"CLASSIFICATION_TYPE":"U","NORAD_CAT_ID":68670,"ELEMENT_SET_NO":999,"REV_AT_EPOCH":261,"BSTAR":0.00088088,"MEAN_MOTION_DOT":0.00133528,"MEAN_MOTION_DDOT":0},{"OBJECT_NAME":"STARLINK-37224","OBJECT_ID":"2026-077K","EPOCH":"2026-04-27T13:29:23.198784","MEAN_MOTION":15.75256413,"ECCENTRICITY":0.0001479,"INCLINATION":97.2848,"RA_OF_ASC_NODE":348.8627,"ARG_OF_PERICENTER":100.3042,"MEAN_ANOMALY":259.839,"EPHEMERIS_TYPE":0,"CLASSIFICATION_TYPE":"U","NORAD_CAT_ID":68671,"ELEMENT_SET_NO":999,"REV_AT_EPOCH":260,"BSTAR":0.0011638,"MEAN_MOTION_DOT":0.00177623,"MEAN_MOTION_DDOT":0},{"OBJECT_NAME":"STARLINK-37296","OBJECT_ID":"2026-077L","EPOCH":"2026-04-27T15:00:21.631968","MEAN_MOTION":15.7524342,"ECCENTRICITY":9.98e-5,"INCLINATION":97.2845,"RA_OF_ASC_NODE":348.9294,"ARG_OF_PERICENTER":70.0104,"MEAN_ANOMALY":290.1269,"EPHEMERIS_TYPE":0,"CLASSIFICATION_TYPE":"U","NORAD_CAT_ID":68672,"ELEMENT_SET_NO":999,"REV_AT_EPOCH":261,"BSTAR":0.0011941,"MEAN_MOTION_DOT":0.00182245,"MEAN_MOTION_DDOT":0},{"OBJECT_NAME":"STARLINK-37316","OBJECT_ID":"2026-077M","EPOCH":"2026-04-27T13:27:51.836832","MEAN_MOTION":15.75257222,"ECCENTRICITY":0.0001625,"INCLINATION":97.2847,"RA_OF_ASC_NODE":348.8646,"ARG_OF_PERICENTER":82.223,"MEAN_ANOMALY":277.922,"EPHEMERIS_TYPE":0,"CLASSIFICATION_TYPE":"U","NORAD_CAT_ID":68673,"ELEMENT_SET_NO":999,"REV_AT_EPOCH":260,"BSTAR":0.0014431,"MEAN_MOTION_DOT":0.00221437,"MEAN_MOTION_DDOT":0},{"OBJECT_NAME":"STARLINK-36672","OBJECT_ID":"2026-077N","EPOCH":"2026-04-27T13:24:18.376128","MEAN_MOTION":15.75245248,"ECCENTRICITY":0.0001237,"INCLINATION":97.2843,"RA_OF_ASC_NODE":348.8666,"ARG_OF_PERICENTER":91.897,"MEAN_ANOMALY":268.2436,"EPHEMERIS_TYPE":0,"CLASSIFICATION_TYPE":"U","NORAD_CAT_ID":68674,"ELEMENT_SET_NO":999,"REV_AT_EPOCH":260,"BSTAR":0.0013543,"MEAN_MOTION_DOT":0.00207341,"MEAN_MOTION_DDOT":0},{"OBJECT_NAME":"STARLINK-36669","OBJECT_ID":"2026-077P","EPOCH":"2026-04-27T13:24:18.340704","MEAN_MOTION":15.75232295,"ECCENTRICITY":0.0001535,"INCLINATION":97.2847,"RA_OF_ASC_NODE":348.8673,"ARG_OF_PERICENTER":91.6057,"MEAN_ANOMALY":268.5384,"EPHEMERIS_TYPE":0,"CLASSIFICATION_TYPE":"U","NORAD_CAT_ID":68675,"ELEMENT_SET_NO":999,"REV_AT_EPOCH":260,"BSTAR":0.00089724,"MEAN_MOTION_DOT":0.00136103,"MEAN_MOTION_DDOT":0},{"OBJECT_NAME":"STARLINK-37312","OBJECT_ID":"2026-077Q","EPOCH":"2026-04-27T11:46:43.843008","MEAN_MOTION":15.7523529,"ECCENTRICITY":0.0001465,"INCLINATION":97.2847,"RA_OF_ASC_NODE":348.8068,"ARG_OF_PERICENTER":76.7328,"MEAN_ANOMALY":283.4101,"EPHEMERIS_TYPE":0,"CLASSIFICATION_TYPE":"U","NORAD_CAT_ID":68676,"ELEMENT_SET_NO":999,"REV_AT_EPOCH":259,"BSTAR":0.0013354,"MEAN_MOTION_DOT":0.00204288,"MEAN_MOTION_DDOT":0},{"OBJECT_NAME":"STARLINK-36168","OBJECT_ID":"2026-077R","EPOCH":"2026-04-27T04:12:23.004000","MEAN_MOTION":15.75368225,"ECCENTRICITY":0.0002007,"INCLINATION":97.2849,"RA_OF_ASC_NODE":348.4708,"ARG_OF_PERICENTER":49.0815,"MEAN_ANOMALY":311.0624,"EPHEMERIS_TYPE":0,"CLASSIFICATION_TYPE":"U","NORAD_CAT_ID":68677,"ELEMENT_SET_NO":999,"REV_AT_EPOCH":254,"BSTAR":0.0015323,"MEAN_MOTION_DOT":0.00236699,"MEAN_MOTION_DDOT":0},{"OBJECT_NAME":"STARLINK-37122","OBJECT_ID":"2026-077S","EPOCH":"2026-04-27T11:48:15.285312","MEAN_MOTION":15.75234079,"ECCENTRICITY":0.000134,"INCLINATION":97.2845,"RA_OF_ASC_NODE":348.8048,"ARG_OF_PERICENTER":91.5369,"MEAN_ANOMALY":268.605,"EPHEMERIS_TYPE":0,"CLASSIFICATION_TYPE":"U","NORAD_CAT_ID":68678,"ELEMENT_SET_NO":999,"REV_AT_EPOCH":259,"BSTAR":0.0012015,"MEAN_MOTION_DOT":0.00183336,"MEAN_MOTION_DDOT":0},{"OBJECT_NAME":"STARLINK-37310","OBJECT_ID":"2026-077T","EPOCH":"2026-04-27T11:47:14.253216","MEAN_MOTION":15.75233068,"ECCENTRICITY":0.0001081,"INCLINATION":97.2849,"RA_OF_ASC_NODE":348.8068,"ARG_OF_PERICENTER":110.4777,"MEAN_ANOMALY":249.6605,"EPHEMERIS_TYPE":0,"CLASSIFICATION_TYPE":"U","NORAD_CAT_ID":68679,"ELEMENT_SET_NO":999,"REV_AT_EPOCH":259,"BSTAR":0.001255,"MEAN_MOTION_DOT":0.00191686,"MEAN_MOTION_DDOT":0},{"OBJECT_NAME":"STARLINK-37306","OBJECT_ID":"2026-077U","EPOCH":"2026-04-27T13:15:40.237056","MEAN_MOTION":15.75237363,"ECCENTRICITY":0.0001876,"INCLINATION":97.285,"RA_OF_ASC_NODE":348.8755,"ARG_OF_PERICENTER":54.0879,"MEAN_ANOMALY":306.056,"EPHEMERIS_TYPE":0,"CLASSIFICATION_TYPE":"U","NORAD_CAT_ID":68680,"ELEMENT_SET_NO":999,"REV_AT_EPOCH":260,"BSTAR":0.0013223,"MEAN_MOTION_DOT":0.00202254,"MEAN_MOTION_DDOT":0},{"OBJECT_NAME":"STARLINK-37307","OBJECT_ID":"2026-077V","EPOCH":"2026-04-27T11:44:41.908416","MEAN_MOTION":15.75236053,"ECCENTRICITY":0.0001722,"INCLINATION":97.2845,"RA_OF_ASC_NODE":348.8083,"ARG_OF_PERICENTER":105.9907,"MEAN_ANOMALY":254.1548,"EPHEMERIS_TYPE":0,"CLASSIFICATION_TYPE":"U","NORAD_CAT_ID":68681,"ELEMENT_SET_NO":999,"REV_AT_EPOCH":259,"BSTAR":0.0013269,"MEAN_MOTION_DOT":0.00202966,"MEAN_MOTION_DDOT":0},{"OBJECT_NAME":"STARLINK-37300","OBJECT_ID":"2026-077W","EPOCH":"2026-04-27T13:10:04.842624","MEAN_MOTION":15.75232768,"ECCENTRICITY":0.0001649,"INCLINATION":97.2847,"RA_OF_ASC_NODE":348.8809,"ARG_OF_PERICENTER":73.0809,"MEAN_ANOMALY":287.0637,"EPHEMERIS_TYPE":0,"CLASSIFICATION_TYPE":"U","NORAD_CAT_ID":68682,"ELEMENT_SET_NO":999,"REV_AT_EPOCH":260,"BSTAR":0.0012001,"MEAN_MOTION_DOT":0.00183108,"MEAN_MOTION_DDOT":0},{"OBJECT_NAME":"STARLINK-37304","OBJECT_ID":"2026-077X","EPOCH":"2026-04-27T13:10:35.321088","MEAN_MOTION":15.75228502,"ECCENTRICITY":0.0001585,"INCLINATION":97.2846,"RA_OF_ASC_NODE":348.8803,"ARG_OF_PERICENTER":68.9223,"MEAN_ANOMALY":291.2212,"EPHEMERIS_TYPE":0,"CLASSIFICATION_TYPE":"U","NORAD_CAT_ID":68683,"ELEMENT_SET_NO":999,"REV_AT_EPOCH":260,"BSTAR":0.0011277,"MEAN_MOTION_DOT":0.00171785,"MEAN_MOTION_DDOT":0},{"OBJECT_NAME":"STARLINK-37287","OBJECT_ID":"2026-077Y","EPOCH":"2026-04-27T11:40:37.966656","MEAN_MOTION":15.75245023,"ECCENTRICITY":0.0001549,"INCLINATION":97.2845,"RA_OF_ASC_NODE":348.8121,"ARG_OF_PERICENTER":92.2477,"MEAN_ANOMALY":267.8965,"EPHEMERIS_TYPE":0,"CLASSIFICATION_TYPE":"U","NORAD_CAT_ID":68684,"ELEMENT_SET_NO":999,"REV_AT_EPOCH":259,"BSTAR":0.0013757,"MEAN_MOTION_DOT":0.00210711,"MEAN_MOTION_DDOT":0},{"OBJECT_NAME":"STARLINK-36278","OBJECT_ID":"2026-077Z","EPOCH":"2026-04-27T11:37:35.043168","MEAN_MOTION":15.75229636,"ECCENTRICITY":0.0001383,"INCLINATION":97.2844,"RA_OF_ASC_NODE":348.8155,"ARG_OF_PERICENTER":75.5702,"MEAN_ANOMALY":284.5717,"EPHEMERIS_TYPE":0,"CLASSIFICATION_TYPE":"U","NORAD_CAT_ID":68685,"ELEMENT_SET_NO":999,"REV_AT_EPOCH":259,"BSTAR":0.0012082,"MEAN_MOTION_DOT":0.00184335,"MEAN_MOTION_DDOT":0},{"OBJECT_NAME":"STARLINK-37213","OBJECT_ID":"2026-077AA","EPOCH":"2026-04-27T13:13:38.096832","MEAN_MOTION":15.75243207,"ECCENTRICITY":0.0001624,"INCLINATION":97.2846,"RA_OF_ASC_NODE":348.8767,"ARG_OF_PERICENTER":103.6687,"MEAN_ANOMALY":256.4759,"EPHEMERIS_TYPE":0,"CLASSIFICATION_TYPE":"U","NORAD_CAT_ID":68686,"ELEMENT_SET_NO":999,"REV_AT_EPOCH":260,"BSTAR":0.0010763,"MEAN_MOTION_DOT":0.00163909,"MEAN_MOTION_DDOT":0}]
