STARLINK-37298          
1 68670U 26077J   26117.62736818  .00133528  00000+0  88088-3 0  9993
2 68670  97.2848 348.9275 0001281  69.0046 291.1356 15.75223848  2613
STARLINK-37224          
1 68671U 26077K   26117.56207406  .00177623  00000+0  11638-2 0  9993
2 68671  97.2848 348.8627 0001479 100.3042 259.8390 15.75256413  2600
STARLINK-37296          
1 68672U 26077L   26117.62525037  .00182245  00000+0  11941-2 0  9997
2 68672  97.2845 348.9294 0000998  70.0104 290.1269 15.75243420  2614
STARLINK-37316          
1 68673U 26077M   26117.56101663  .00221437  00000+0  14431-2 0  9990
2 68673  97.2847 348.8646 0001625  82.2230 277.9220 15.75257222  2604
STARLINK-36672          
1 68674U 26077N   26117.55854602  .00207341  00000+0  13543-2 0  9999
2 68674  97.2843 348.8666 0001237  91.8970 268.2436 15.75245248  2606
STARLINK-36669          
1 68675U 26077P   26117.55854561  .00136103  00000+0  89724-3 0  9996
2 68675  97.2847 348.8673 0001535  91.6057 268.5384 15.75232295  2607
STARLINK-37312          
1 68676U 26077Q   26117.49078522  .00204288  00000+0  13354-2 0  9990
2 68676  97.2847 348.8068 0001465  76.7328 283.4101 15.75235290  2592
STARLINK-36168          
1 68677U 26077R   26117.17526625  .00236699  00000+0  15323-2 0  9997
2 68677  97.2849 348.4708 0002007  49.0815 311.0624 15.75368225  2547
STARLINK-37122          
1 68678U 26077S   26117.49184358  .00183336  00000+0  12015-2 0  9990
2 68678  97.2845 348.8048 0001340  91.5369 268.6050 15.75234079  2594
STARLINK-37310          
1 68679U 26077T   26117.49113719  .00191686  00000+0  12550-2 0  9995
2 68679  97.2849 348.8068 0001081 110.4777 249.6605 15.75233068  2599
STARLINK-37306          
1 68680U 26077U   26117.55254904  .00202254  00000+0  13223-2 0  9998
2 68680  97.2850 348.8755 0001876  54.0879 306.0560 15.75237363  2606
STARLINK-37307          
1 68681U 26077V   26117.48937394  .00202966  00000+0  13269-2 0  9992
2 68681  97.2845 348.8083 0001722 105.9907 254.1548 15.75236053  2595
STARLINK-37300          
1 68682U 26077W   26117.54866716  .00183108  00000+0  12001-2 0  9998
2 68682  97.2847 348.8809 0001649  73.0809 287.0637 15.75232768  2603
STARLINK-37304          
1 68683U 26077X   26117.54901992  .00171785  00000+0  11277-2 0  9997
2 68683  97.2846 348.8803 0001585  68.9223 291.2212 15.75228502  2606
STARLINK-37287          
1 68684U 26077Y   26117.48655054  .00210711  00000+0  13757-2 0  9994
2 68684  97.2845 348.8121 0001549  92.2477 267.8965 15.75245023  2599
STARLINK-36278          
1 68685U 26077Z   26117.48443337  .00184335  00000+0  12082-2 0  9996
2 68685  97.2844 348.8155 0001383  75.5702 284.5717 15.75229636  2590
STARLINK-37213          
1 68686U 26077AA  26117.55113538  .00163909  00000+0  10763-2 0  9990
2 68686  97.2846 348.8767 0001624 103.6687 256.4759 15.75243207  2601
